{
  "norad_id": 57718,
  "name": "STARLINK-30338",
  "history": [
    {
      "epoch": "2026-03-28T11:36:48.153888Z",
      "apogee_km": 484.1342281689549,
      "perigee_km": 481.8371242969524,
      "latitude_deg": 1.1184224543237851e-05,
      "longitude_deg": 11.92899055439088,
      "height_km": 482.928113590958,
      "semi_major_axis_km": 6861.122676232953,
      "eccentricity": 0.0001674,
      "inclination_deg": 43.0019,
      "raan_deg": 12.0333,
      "arg_perigee_deg": 261.7231,
      "mean_anomaly_deg": 98.3431,
      "mean_motion_rev_day": 15.2760118
    },
    {
      "epoch": "2026-03-29T03:18:22.850208Z",
      "apogee_km": 484.12916072034113,
      "perigee_km": 482.0776498391615,
      "latitude_deg": 2.681815346997143e-05,
      "longitude_deg": 132.19565166507448,
      "height_km": 482.62760647083496,
      "semi_major_axis_km": 6861.240405279751,
      "eccentricity": 0.0001495,
      "inclination_deg": 43.0053,
      "raan_deg": 8.339,
      "arg_perigee_deg": 284.2888,
      "mean_anomaly_deg": 75.7798,
      "mean_motion_rev_day": 15.27561863
    },
    {
      "epoch": "2026-03-30T02:50:44.493792Z",
      "apogee_km": 483.9780721397665,
      "perigee_km": 482.2281814578273,
      "latitude_deg": -3.086488533340784e-05,
      "longitude_deg": 132.60088256804246,
      "height_km": 482.9776261377395,
      "semi_major_axis_km": 6861.240126798797,
      "eccentricity": 0.00012752,
      "inclination_deg": 43.0037,
      "raan_deg": 2.8012,
      "arg_perigee_deg": 263.6016,
      "mean_anomaly_deg": 96.469,
      "mean_motion_rev_day": 15.27561956
    },
    {
      "epoch": "2026-03-30T10:41:31.089408Z",
      "apogee_km": 484.1839502621733,
      "perigee_km": 481.9518630819348,
      "latitude_deg": 1.2991023017090016e-05,
      "longitude_deg": 12.739246182822576,
      "height_km": 482.9329289033272,
      "semi_major_axis_km": 6861.204906672054,
      "eccentricity": 0.00016266,
      "inclination_deg": 43.0009,
      "raan_deg": 0.9559,
      "arg_perigee_deg": 265.4748,
      "mean_anomaly_deg": 94.5918,
      "mean_motion_rev_day": 15.27573718
    },
    {
      "epoch": "2026-03-30T18:32:18.222432Z",
      "apogee_km": 484.17297719059025,
      "perigee_km": 481.9653155009428,
      "latitude_deg": -3.878942088742363e-05,
      "longitude_deg": -107.12613751739968,
      "height_km": 482.976351691296,
      "semi_major_axis_km": 6861.206146345767,
      "eccentricity": 0.00016088,
      "inclination_deg": 43.0009,
      "raan_deg": 359.1092,
      "arg_perigee_deg": 263.2231,
      "mean_anomaly_deg": 96.8437,
      "mean_motion_rev_day": 15.27573304
    },
    {
      "epoch": "2026-03-31T10:13:52.020192Z",
      "apogee_km": 484.08136959101284,
      "perigee_km": 481.9980418960813,
      "latitude_deg": 2.0518126572836938e-05,
      "longitude_deg": 13.145925411386647,
      "height_km": 482.92715914661613,
      "semi_major_axis_km": 6861.176705743547,
      "eccentricity": 0.00015182,
      "inclination_deg": 43.0051,
      "raan_deg": 355.4165,
      "arg_perigee_deg": 263.9321,
      "mean_anomaly_deg": 96.1358,
      "mean_motion_rev_day": 15.27583136
    },
    {
      "epoch": "2026-04-01T09:46:14.291904Z",
      "apogee_km": 484.0401335890692,
      "perigee_km": 482.20131651875454,
      "latitude_deg": 1.583189466880397e-05,
      "longitude_deg": 13.548789190873984,
      "height_km": 482.9824629105969,
      "semi_major_axis_km": 6861.257725053912,
      "eccentricity": 0.000134,
      "inclination_deg": 43.0042,
      "raan_deg": 349.8789,
      "arg_perigee_deg": 264.7183,
      "mean_anomaly_deg": 95.3516,
      "mean_motion_rev_day": 15.27556079
    },
    {
      "epoch": "2026-04-02T17:09:20.892960Z",
      "apogee_km": 484.06222874834657,
      "perigee_km": 481.8941163538202,
      "latitude_deg": -1.4111477070681961e-05,
      "longitude_deg": -105.90328891554522,
      "height_km": 482.8996945989166,
      "semi_major_axis_km": 6861.115172551083,
      "eccentricity": 0.000158,
      "inclination_deg": 43.0006,
      "raan_deg": 342.4933,
      "arg_perigee_deg": 262.3325,
      "mean_anomaly_deg": 97.7347,
      "mean_motion_rev_day": 15.27603686
    },
    {
      "epoch": "2026-04-02T23:25:58.171008Z",
      "apogee_km": 484.4076963393227,
      "perigee_km": 481.5267186825895,
      "latitude_deg": 6.960548512301185e-05,
      "longitude_deg": 158.20198723387983,
      "height_km": 482.5565010154769,
      "semi_major_axis_km": 6861.104207510956,
      "eccentricity": 0.00020995,
      "inclination_deg": 42.9969,
      "raan_deg": 341.0116,
      "arg_perigee_deg": 277.4836,
      "mean_anomaly_deg": 82.5778,
      "mean_motion_rev_day": 15.27607348
    },
    {
      "epoch": "2026-04-03T08:50:53.823264Z",
      "apogee_km": 484.0303983265385,
      "perigee_km": 481.8841108218221,
      "latitude_deg": -2.4189748686962698e-05,
      "longitude_deg": 14.369823626825204,
      "height_km": 482.61965293373163,
      "semi_major_axis_km": 6861.09425457418,
      "eccentricity": 0.00015641,
      "inclination_deg": 42.9988,
      "raan_deg": 338.7981,
      "arg_perigee_deg": 276.1148,
      "mean_anomaly_deg": 83.9525,
      "mean_motion_rev_day": 15.27610672
    },
    {
      "epoch": "2026-04-04T08:23:15.589536Z",
      "apogee_km": 483.95976357787913,
      "perigee_km": 482.20301722120166,
      "latitude_deg": -2.114000393178663e-05,
      "longitude_deg": 14.773505734965669,
      "height_km": 482.9231408327886,
      "semi_major_axis_km": 6861.21839039954,
      "eccentricity": 0.00012802,
      "inclination_deg": 43.0,
      "raan_deg": 333.2592,
      "arg_perigee_deg": 265.7459,
      "mean_anomaly_deg": 94.3246,
      "mean_motion_rev_day": 15.27569215
    },
    {
      "epoch": "2026-04-05T07:55:37.265088Z",
      "apogee_km": 484.070076396717,
      "perigee_km": 482.11682131253747,
      "latitude_deg": 3.2150961549743686e-05,
      "longitude_deg": 15.178619625389192,
      "height_km": 482.84699881820706,
      "semi_major_axis_km": 6861.230448854627,
      "eccentricity": 0.00014234,
      "inclination_deg": 43.0006,
      "raan_deg": 327.7213,
      "arg_perigee_deg": 271.3635,
      "mean_anomaly_deg": 88.7054,
      "mean_motion_rev_day": 15.27565188
    },
    {
      "epoch": "2026-04-05T23:37:11.192448Z",
      "apogee_km": 483.9896646074176,
      "perigee_km": 482.0954301579768,
      "latitude_deg": 3.64378816097314e-05,
      "longitude_deg": 135.44858037063625,
      "height_km": 482.8370434559938,
      "semi_major_axis_km": 6861.179547382697,
      "eccentricity": 0.00013804,
      "inclination_deg": 43.0015,
      "raan_deg": 324.0271,
      "arg_perigee_deg": 268.9322,
      "mean_anomaly_deg": 91.1372,
      "mean_motion_rev_day": 15.27582187
    },
    {
      "epoch": "2026-04-07T00:43:40.264896Z",
      "apogee_km": 484.0330858632815,
      "perigee_km": 481.99477514484715,
      "latitude_deg": 3.874803969056396e-05,
      "longitude_deg": 111.88889300905988,
      "height_km": 482.98131962785254,
      "semi_major_axis_km": 6861.150930504064,
      "eccentricity": 0.00014854,
      "inclination_deg": 43.0006,
      "raan_deg": 318.1197,
      "arg_perigee_deg": 259.221,
      "mean_anomaly_deg": 100.8475,
      "mean_motion_rev_day": 15.27591744
    },
    {
      "epoch": "2026-04-07T21:07:42.235680Z",
      "apogee_km": 484.02343579318585,
      "perigee_km": 482.03369777881835,
      "latitude_deg": 1.6977334696772888e-05,
      "longitude_deg": 160.24193498689698,
      "height_km": 483.00134726013295,
      "semi_major_axis_km": 6861.165566786001,
      "eccentricity": 0.000145,
      "inclination_deg": 43.0012,
      "raan_deg": 313.3188,
      "arg_perigee_deg": 258.6403,
      "mean_anomaly_deg": 101.4286,
      "mean_motion_rev_day": 15.27586856
    },
    {
      "epoch": "2026-04-08T14:23:25.645632Z",
      "apogee_km": 484.06094358346854,
      "perigee_km": 482.0533581749214,
      "latitude_deg": 3.548783577294954e-05,
      "longitude_deg": -103.4585498195799,
      "height_km": 482.9124019391086,
      "semi_major_axis_km": 6861.194150879195,
      "eccentricity": 0.0001463,
      "inclination_deg": 43.0005,
      "raan_deg": 309.2581,
      "arg_perigee_deg": 265.517,
      "mean_anomaly_deg": 94.5515,
      "mean_motion_rev_day": 15.2757731
    },
    {
      "epoch": "2026-04-08T23:48:21.992544Z",
      "apogee_km": 484.0704146453545,
      "perigee_km": 482.0375809765228,
      "latitude_deg": -5.561952222162482e-05,
      "longitude_deg": 112.70438592667676,
      "height_km": 482.93748199255157,
      "semi_major_axis_km": 6861.190997810938,
      "eccentricity": 0.00014814,
      "inclination_deg": 43.0009,
      "raan_deg": 307.0426,
      "arg_perigee_deg": 263.9781,
      "mean_anomaly_deg": 96.0901,
      "mean_motion_rev_day": 15.27578363
    },
    {
      "epoch": "2026-04-11T20:51:15.036192Z",
      "apogee_km": 483.967727309574,
      "perigee_km": 482.15911487857375,
      "latitude_deg": 3.333737470619289e-05,
      "longitude_deg": 137.89895554116057,
      "height_km": 482.9390350861381,
      "semi_major_axis_km": 6861.200421094074,
      "eccentricity": 0.0001318,
      "inclination_deg": 43.0018,
      "raan_deg": 290.7938,
      "arg_perigee_deg": 263.7274,
      "mean_anomaly_deg": 96.3428,
      "mean_motion_rev_day": 15.27575216
    },
    {
      "epoch": "2026-04-12T21:57:45.726048Z",
      "apogee_km": 483.8990358196861,
      "perigee_km": 482.2345077846476,
      "latitude_deg": -4.141334835663664e-06,
      "longitude_deg": 114.33247002482925,
      "height_km": 482.9092094067931,
      "semi_major_axis_km": 6861.203771802167,
      "eccentricity": 0.0001213,
      "inclination_deg": 43.0012,
      "raan_deg": 284.8864,
      "arg_perigee_deg": 265.4674,
      "mean_anomaly_deg": 94.6039,
      "mean_motion_rev_day": 15.27574097
    }
  ]
}